{
  "links" : {
    "next" : "https://api.nasa.gov/neo/rest/v1/feed?start_date=1996-08-23&end_date=1996-08-23&detailed=true&api_key=t0TVs3DtDT2H8Oy2Zy8m2eVrNsAVKAexjcZXUckd",
    "prev" : "https://api.nasa.gov/neo/rest/v1/feed?start_date=1996-08-21&end_date=1996-08-21&detailed=true&api_key=t0TVs3DtDT2H8Oy2Zy8m2eVrNsAVKAexjcZXUckd",
    "self" : "https://api.nasa.gov/neo/rest/v1/feed?start_date=1996-08-22&end_date=1996-08-22&detailed=true&api_key=t0TVs3DtDT2H8Oy2Zy8m2eVrNsAVKAexjcZXUckd"
  },
  "element_count" : 3,
  "near_earth_objects" : {
    "1996-08-22" : [ {
      "links" : {
        "self" : "https://api.nasa.gov/neo/rest/v1/neo/3283679?api_key=t0TVs3DtDT2H8Oy2Zy8m2eVrNsAVKAexjcZXUckd"
      },
      "neo_reference_id" : "3283679",
      "name" : "(2005 NE21)",
      "nasa_jpl_url" : "http://ssd.jpl.nasa.gov/sbdb.cgi?sstr=3283679",
      "absolute_magnitude_h" : 21.2,
      "estimated_diameter" : {
        "kilometers" : {
          "estimated_diameter_min" : 0.1529519353,
          "estimated_diameter_max" : 0.3420109247
        },
        "meters" : {
          "estimated_diameter_min" : 152.9519353442,
          "estimated_diameter_max" : 342.0109247198
        },
        "miles" : {
          "estimated_diameter_min" : 0.095039897,
          "estimated_diameter_max" : 0.2125156703
        },
        "feet" : {
          "estimated_diameter_min" : 501.8108275547,
          "estimated_diameter_max" : 1122.0831222578
        }
      },
      "is_potentially_hazardous_asteroid" : false,
      "close_approach_data" : [ {
        "close_approach_date" : "1996-08-22",
        "epoch_date_close_approach" : 840697200000,
        "relative_velocity" : {
          "kilometers_per_second" : "22.4538896731",
          "kilometers_per_hour" : "80834.0028232425",
          "miles_per_hour" : "50227.1058098086"
        },
        "miss_distance" : {
          "astronomical" : "0.3466883774",
          "lunar" : "134.8617858887",
          "kilometers" : "51863844",
          "miles" : "32226700"
        },
        "orbiting_body" : "Earth"
      } ],
      "orbital_data" : {
        "orbit_id" : "20",
        "orbit_determination_date" : "2017-04-06 09:10:47",
        "orbit_uncertainty" : "1",
        "minimum_orbit_intersection" : ".0565464",
        "jupiter_tisserand_invariant" : "7.257",
        "epoch_osculation" : "2458000.5",
        "eccentricity" : ".4963801982710231",
        "semi_major_axis" : ".7892632538738696",
        "inclination" : "10.63367302909255",
        "ascending_node_longitude" : "289.7666111107345",
        "orbital_period" : "256.1127811955777",
        "perihelion_distance" : ".3974886034279254",
        "perihelion_argument" : "194.6834126481515",
        "aphelion_distance" : "1.181037904319814",
        "perihelion_time" : "2458061.577708133887",
        "mean_anomaly" : "274.1472954783596",
        "mean_motion" : "1.405630747202304",
        "equinox" : "J2000"
      }
    }, {
      "links" : {
        "self" : "https://api.nasa.gov/neo/rest/v1/neo/3508112?api_key=t0TVs3DtDT2H8Oy2Zy8m2eVrNsAVKAexjcZXUckd"
      },
      "neo_reference_id" : "3508112",
      "name" : "(2010 CF19)",
      "nasa_jpl_url" : "http://ssd.jpl.nasa.gov/sbdb.cgi?sstr=3508112",
      "absolute_magnitude_h" : 21.7,
      "estimated_diameter" : {
        "kilometers" : {
          "estimated_diameter_min" : 0.1214940408,
          "estimated_diameter_max" : 0.2716689341
        },
        "meters" : {
          "estimated_diameter_min" : 121.4940407996,
          "estimated_diameter_max" : 271.6689340891
        },
        "miles" : {
          "estimated_diameter_min" : 0.0754928736,
          "estimated_diameter_max" : 0.1688071972
        },
        "feet" : {
          "estimated_diameter_min" : 398.6025088171,
          "estimated_diameter_max" : 891.3023057169
        }
      },
      "is_potentially_hazardous_asteroid" : true,
      "close_approach_data" : [ {
        "close_approach_date" : "1996-08-22",
        "epoch_date_close_approach" : 840697200000,
        "relative_velocity" : {
          "kilometers_per_second" : "4.4207393166",
          "kilometers_per_hour" : "15914.6615396609",
          "miles_per_hour" : "9888.7517772409"
        },
        "miss_distance" : {
          "astronomical" : "0.2575128421",
          "lunar" : "100.172492981",
          "kilometers" : "38523372",
          "miles" : "23937314"
        },
        "orbiting_body" : "Earth"
      } ],
      "orbital_data" : {
        "orbit_id" : "41",
        "orbit_determination_date" : "2017-04-06 08:58:26",
        "orbit_uncertainty" : "0",
        "minimum_orbit_intersection" : ".0322578",
        "jupiter_tisserand_invariant" : "5.276",
        "epoch_osculation" : "2458000.5",
        "eccentricity" : ".2699880940288203",
        "semi_major_axis" : "1.193021949573804",
        "inclination" : "7.17700988326369",
        "ascending_node_longitude" : "154.7470265970837",
        "orbital_period" : "475.9606817316997",
        "perihelion_distance" : ".8709202272738253",
        "perihelion_argument" : "265.2441854634235",
        "aphelion_distance" : "1.515123671873783",
        "perihelion_time" : "2458031.775198317021",
        "mean_anomaly" : "336.3445346931528",
        "mean_motion" : ".7563649978191538",
        "equinox" : "J2000"
      }
    }, {
      "links" : {
        "self" : "https://api.nasa.gov/neo/rest/v1/neo/3773593?api_key=t0TVs3DtDT2H8Oy2Zy8m2eVrNsAVKAexjcZXUckd"
      },
      "neo_reference_id" : "3773593",
      "name" : "(2017 FM127)",
      "nasa_jpl_url" : "http://ssd.jpl.nasa.gov/sbdb.cgi?sstr=3773593",
      "absolute_magnitude_h" : 25.579,
      "estimated_diameter" : {
        "kilometers" : {
          "estimated_diameter_min" : 0.0203589313,
          "estimated_diameter_max" : 0.0455239543
        },
        "meters" : {
          "estimated_diameter_min" : 20.3589312876,
          "estimated_diameter_max" : 45.5239543082
        },
        "miles" : {
          "estimated_diameter_min" : 0.0126504495,
          "estimated_diameter_max" : 0.028287265
        },
        "feet" : {
          "estimated_diameter_min" : 66.7943961255,
          "estimated_diameter_max" : 149.3568102526
        }
      },
      "is_potentially_hazardous_asteroid" : false,
      "close_approach_data" : [ {
        "close_approach_date" : "1996-08-22",
        "epoch_date_close_approach" : 840697200000,
        "relative_velocity" : {
          "kilometers_per_second" : "7.9288906135",
          "kilometers_per_hour" : "28544.0062084398",
          "miles_per_hour" : "17736.1354132386"
        },
        "miss_distance" : {
          "astronomical" : "0.1424525189",
          "lunar" : "55.4140319824",
          "kilometers" : "21310594",
          "miles" : "13241789"
        },
        "orbiting_body" : "Earth"
      } ],
      "orbital_data" : {
        "orbit_id" : "2",
        "orbit_determination_date" : "2017-04-06 08:18:56",
        "orbit_uncertainty" : "6",
        "minimum_orbit_intersection" : ".0580781",
        "jupiter_tisserand_invariant" : "6.192",
        "epoch_osculation" : "2458000.5",
        "eccentricity" : ".1584189967734916",
        "semi_major_axis" : ".9714628267006736",
        "inclination" : "11.68968551869064",
        "ascending_node_longitude" : "181.019520819876",
        "orbital_period" : "349.7338808915595",
        "perihelion_distance" : ".8175646602920126",
        "perihelion_argument" : "226.4057343875045",
        "aphelion_distance" : "1.125360993109335",
        "perihelion_time" : "2458068.275716148422",
        "mean_anomaly" : "290.2347895170116",
        "mean_motion" : "1.029354087977606",
        "equinox" : "J2000"
      }
    } ]
  }
}